GSAT0101 (PRN E11)      
1 37846U 11060A   23250.81624991 -.00000108  00000+0  00000+0 0  9996
2 37846  57.1101   9.2052 0001525  76.0443 283.9755  1.70475997 73840
GSAT0102 (PRN E12)      
1 37847U 11060B   23251.31835299 -.00000108  00000+0  00000+0 0  9998
2 37847  57.1107   9.1916 0001180 338.2683  16.1685  1.70475403 73852
GSAT0103 (PRN E19)      
1 38857U 12055A   23249.09567318 -.00000024  00000+0  00000+0 0  9998
2 38857  55.2824 129.4445 0002775 265.7158  94.3282  1.70473717 67708
GSAT0104 (PRN E20)      
1 38858U 12055B   23250.82487794 -.00000025  00000+0  00000+0 0  9992
2 38858  55.2834 129.3986 0000274 189.1883 170.8852  1.70474012 67730
GSAT0201 (PRN E18)      
1 40128U 14050A   23250.03795509 -.00000089  00000+0  00000+0 0  9991
2 40128  49.9326 314.4591 1608846 140.4798 232.4485  1.85519266 59503
GSAT0202 (PRN E14)      
1 40129U 14050B   23250.83632538 -.00000082  00000+0  00000+0 0  9995
2 40129  49.9511 313.4987 1606699 141.3208 231.3756  1.85520012 61680
GSAT0203 (PRN E26)      
1 40544U 15017A   23250.00912571 -.00000108  00000+0  00000+0 0  9996
2 40544  56.9052   9.1996 0003163 226.1111 133.8659  1.70476260 51911
GSAT0204 (PRN E22)      
1 40545U 15017B   23251.43593026 -.00000109  00000+0  00000+0 0  9996
2 40545  56.9115   9.1752 0003558 209.4142 150.5685  1.70475793 14978
GSAT0205 (PRN E24)      
1 40889U 15045A   23251.20387561  .00000041  00000+0  00000+0 0  9992
2 40889  55.3622 249.5890 0003379 358.4174   1.5922  1.70473448 49746
GSAT0206 (PRN E30)      
1 40890U 15045B   23247.31844457  .00000034  00000+0  00000+0 0  9995
2 40890  55.3631 249.6919 0002361 323.6055  36.3796  1.70473376 49704
GSAT0209 (PRN E09)      
1 41174U 15079A   23251.00969154 -.00000024  00000+0  00000+0 0  9991
2 41174  55.3009 129.0987 0003021 331.9040  28.1541  1.70474047 47504
GSAT0208 (PRN E08)      
1 41175U 15079B   23251.22929910 -.00000024  00000+0  00000+0 0  9992
2 41175  55.2993 129.0909 0002544 331.7638  28.2972  1.70474006 47920
GSAT0211 (PRN E02)      
1 41549U 16030A   23250.17706740  .00000042  00000+0  00000+0 0  9991
2 41549  55.5090 249.5934 0003960 309.2510  50.7225  1.70473515 45387
GSAT0210 (PRN E01)      
1 41550U 16030B   23251.05518232  .00000042  00000+0  00000+0 0  9998
2 41550  55.5078 249.5705 0004194 276.0956  83.8671  1.70473620 45396
GSAT0207 (PRN E07)      
1 41859U 16069A   23250.13036528 -.00000026  00000+0  00000+0 0  9996
2 41859  54.9635 129.1943 0002913 309.3976  50.6506  1.70473959 42117
GSAT0212 (PRN E03)      
1 41860U 16069B   23248.22529093 -.00000020  00000+0  00000+0 0  9993
2 41860  54.9600 129.2439 0002288   0.6676 359.4114  1.70474068 42336
GSAT0213 (PRN E04)      
1 41861U 16069C   23250.93770931 -.00000025  00000+0  00000+0 0  9999
2 41861  54.9634 129.1746 0002369 277.1959  82.8512  1.70472860 42246
GSAT0214 (PRN E05)      
1 41862U 16069D   23251.08494650 -.00000025  00000+0  00000+0 0  9998
2 41862  54.9621 129.1643 0001721 286.6121  73.4432  1.70472699 42377
GSAT0215 (PRN E21)      
1 43055U 17079A   23250.98702073  .00000042  00000+0  00000+0 0  9993
2 43055  55.4850 249.3971 0003712 269.6033  90.3643  1.70474147 35719
GSAT0216 (PRN E25)      
1 43056U 17079B   23246.58625198  .00000032  00000+0  00000+0 0  9996
2 43056  55.4873 249.5184 0005310 274.6738  85.2661  1.70474233 35659
GSAT0217 (PRN E27)      
1 43057U 17079C   23250.32612422  .00000042  00000+0  00000+0 0  9991
2 43057  55.4838 249.4142 0004644 286.6111  73.3466  1.70474247 35703
GSAT0218 (PRN E31)      
1 43058U 17079D   23249.37300422  .00000041  00000+0  00000+0 0  9998
2 43058  55.4844 249.4380 0005753 271.9733  87.9669  1.70474206 35716
GSAT0221 (PRN E15)      
1 43564U 18060A   23249.85933313 -.00000108  00000+0  00000+0 0  9990
2 43564  57.2858   9.1324 0002819 253.2471 106.7251  1.70476117 31877
GSAT0222 (PRN E33)      
1 43565U 18060B   23250.66400652 -.00000108  00000+0  00000+0 0  9997
2 43565  57.2893   9.1120 0003446 211.4248 148.5575  1.70475917 31933
GSAT0219 (PRN E36)      
1 43566U 18060C   23250.88633235 -.00000108  00000+0  00000+0 0  9997
2 43566  57.2884   9.1081 0001927 255.1951 104.7864  1.70476190 31915
GSAT0220 (PRN E13)      
1 43567U 18060D   23250.52017087 -.00000108  00000+0  00000+0 0  9990
2 43567  57.2882   9.1176 0002355 249.4676 110.5101  1.70476080 31899
GSAT0223 (PRN E34)      
1 49809U 21116A   23250.37505559 -.00000108  00000+0  00000+0 0  9990
2 49809  57.2798   9.0174 0003355 179.9271 181.2690  1.70476243 10904
GSAT0224 (PRN E10)      
1 49810U 21116B   23251.37265096 -.00000108  00000+0  00000+0 0  9992
2 49810  57.2805   8.9888 0002816 174.3586 191.5664  1.70476310 10948
